[{"id":"54027","name":"GALAXY 34 (G-34)","tle1":"1 54027U 22128B   26175.57264679  .00000066  00000+0  00000+0 0  9990","tle2":"2 54027   0.0145   9.2904 0002066  88.7541 251.8415  1.00277187 13981"},{"id":"54033","name":"ANGOSAT 2","tle1":"1 54033U 22131A   26175.31755307  .00000143  00000+0  00000+0 0  9992","tle2":"2 54033   0.0306 105.9233 0000621 352.8704 310.9921  1.00272115 13544"},{"id":"54048","name":"EUTELSAT HOTBIRD 13F","tle1":"1 54048U 22134A   26176.17108735  .00000097  00000+0  00000+0 0  9991","tle2":"2 54048   0.0466 293.2237 0002121  71.2580 343.4414  1.00271103 13457"},{"id":"54219","name":"LDPE-2","tle1":"1 54219U 22144A   26176.33697905  .00000119  00000+0  00000+0 0  9997","tle2":"2 54219   5.6327  63.5890 0002021  92.5469  88.8744  1.00536954 11922"},{"id":"54225","name":"EUTELSAT HOTBIRD 13G","tle1":"1 54225U 22146A   26175.36919756  .00000095  00000+0  00000+0 0  9992","tle2":"2 54225   0.0504 222.3782 0002120 311.5150 244.5443  1.00273684  7538"},{"id":"54230","name":"ZHONGXING-19","tle1":"1 54230U 22148A   26176.27213808 -.00000072  00000+0  00000+0 0  9992","tle2":"2 54230   0.0284  77.2518 0002778  35.4890  61.8418  1.00272599 13460"},{"id":"54243","name":"GALAXY 31 (G-31)","tle1":"1 54243U 22153A   26176.12475458  .00000000  00000+0  00000+0 0  9997","tle2":"2 54243   0.0172   2.5644 0001511  93.8237 100.7977  1.00272384  7219"},{"id":"54244","name":"GALAXY 32 (G-32)","tle1":"1 54244U 22153B   26175.22367264 -.00000167  00000+0  00000+0 0  9998","tle2":"2 54244   0.0097   2.1596 0002133  41.7877 217.9513  1.00271380 13210"},{"id":"54259","name":"EUTELSAT 10B","tle1":"1 54259U 22157A   26175.38621325  .00000075  00000+0  00000+0 0  9993","tle2":"2 54259   0.0630  97.8964 0001802   7.0175 316.6249  1.00268320 13096"},{"id":"54741","name":"GALAXY 35 (G-35)","tle1":"1 54741U 22170A   26176.15010825 -.00000153  00000+0  00000+0 0  9995","tle2":"2 54741   0.0146 309.3921 0002120 142.0946 142.7336  1.00271509 12972"},{"id":"54742","name":"GALAXY 36 (G-36)","tle1":"1 54742U 22170B   26176.15088826 -.00000176  00000+0  00000+0 0  9997","tle2":"2 54742   0.0343 132.5365 0002829 314.9706 151.1100  1.00271784 12855"},{"id":"54743","name":"METEOSAT-12 (MTG-I1)","tle1":"1 54743U 22170C   26176.23516927  .00000002  00000+0  00000+0 0  9992","tle2":"2 54743   0.7474  24.2867 0003592  71.3838 262.0180  1.00275041 13053"},{"id":"55131","name":"SHIJIAN-23 (SJ-23)","tle1":"1 55131U 23002A   26175.77820198 -.00000281  00000+0  00000+0 0  9995","tle2":"2 55131   3.7373  78.2242 0003749 278.5821 339.3351  1.00086365 12583"},{"id":"55239","name":"APSTAR-6E","tle1":"1 55239U 23005A   26176.26633140 -.00000308  00000+0  00000+0 0  9991","tle2":"2 55239   0.0229 257.9618 0000503 279.0565 326.2501  1.00272592 18779"},{"id":"55263","name":"USA 342","tle1":"1 55263U 23008A   26170.70365845  .00000000  00000+0  00000+0 0  9996","tle2":"2 55263   0.0057  73.3519 0000125 107.0449   4.6843  1.00267812 12540"},{"id":"55264","name":"LDPE-3A","tle1":"1 55264U 23008B   26176.32633252  .00000071  00000+0  00000+0 0  9999","tle2":"2 55264   2.3692  81.5725 0001440  51.6395 115.7184  0.99147846 11896"},{"id":"55506","name":"ELEKTRO-L 4","tle1":"1 55506U 23016A   26175.78133853 -.00000049  00000+0  00000+0 0  9994","tle2":"2 55506   0.0809 152.6579 0000948  28.1439 179.1927  1.00271273 12409"},{"id":"55508","name":"AMAZONAS NEXUS","tle1":"1 55508U 23017A   26174.99114264 -.00000276  00000+0  00000+0 0  9996","tle2":"2 55508   0.0361  39.7182 0005035  35.9228 132.3280  1.00273041  7113"},{"id":"55686","name":"ZHONGXING-26","tle1":"1 55686U 23023A   26176.33587515 -.00000344  00000+0  00000+0 0  9999","tle2":"2 55686   0.0671  70.6866 0003731  19.3757  69.4216  1.00267516 12318"},{"id":"55841","name":"LUCH-5X (OLYMP-K 2)","tle1":"1 55841U 23031A   26175.75306257  .00000042  00000+0  00000+0 0  9992","tle2":"2 55841   0.0345  77.9779 0000949 147.7134  20.3023  1.00270710 12014"},{"id":"55912","name":"GAOFEN-13 02","tle1":"1 55912U 23036A   26176.26919140 -.00000210  00000+0  00000+0 0  9992","tle2":"2 55912   1.0219   2.1756 0003812 339.4823 176.9113  1.00269653 12175"},{"id":"55970","name":"SES-18","tle1":"1 55970U 23038A   26175.19749707 -.00000094  00000+0  00000+0 0  9999","tle2":"2 55970   0.0410 275.0937 0000513 233.5125  91.7362  1.00271139 12179"},{"id":"55971","name":"SES-19","tle1":"1 55971U 23038B   26176.28441846  .00000098  00000+0  00000+0 0  9997","tle2":"2 55971   0.0176 315.8434 0001929 139.2636 145.7893  1.00271954 12179"},{"id":"56174","name":"INTELSAT 40E (IS-40E)","tle1":"1 56174U 23052A   26175.33100118  .00000000  00000+0  00000+0 0  9991","tle2":"2 56174   0.0200  27.5285 0002464  97.1687 175.9456  1.00269586 11893"},{"id":"56370","name":"VIASAT-3 F1","tle1":"1 56370U 23060A   26175.50928414  .00000000  00000+0  00000+0 0  9994","tle2":"2 56370   0.0223 357.1841 0001157  93.0700 276.7981  1.00269346 11500"},{"id":"56371","name":"ARCTURUS","tle1":"1 56371U 23060B   26174.03636147 -.00000127  00000+0  00000+0 0  9992","tle2":"2 56371   2.7882  79.8710 0002299 243.3482  34.0386  1.00548738 11519"},{"id":"56372","name":"GS-1","tle1":"1 56372U 23060C   26175.90099932 -.00000217  00000+0  00000+0 0  9995","tle2":"2 56372   2.7448  79.7441 0003771 280.6706 326.4471  1.00272474  7617"},{"id":"56564","name":"BEIDOU-3 G4","tle1":"1 56564U 23066A   26176.26754473 -.00000271  00000+0  00000+0 0  9992","tle2":"2 56564   0.4777 333.5966 0004728 175.7491   0.4370  1.00271682 11477"},{"id":"56757","name":"ARABSAT-7B (BADR-8)","tle1":"1 56757U 23075A   26174.02069251  .00000148  00000+0  00000+0 0  9993","tle2":"2 56757   0.0766  30.7707 0004373 357.7394 276.1261  1.00271390 11178"},{"id":"56759","name":"NVS-01 (IRNSS-1J)","tle1":"1 56759U 23076A   26176.26546472 -.00000323  00000+0  00000+0 0  9995","tle2":"2 56759   2.1468 243.9686 0002838  14.0924 240.4344  1.00275599 11195"},{"id":"57045","name":"NUSANTARA TIGA (SATRIA)","tle1":"1 57045U 23086A   26176.26875807 -.00000225  00000+0  00000+0 0  9993","tle2":"2 57045   0.0359 357.5208 0002821 347.1824 171.4594  1.00269248  9846"}]