OBJECT_NAME,OBJECT_ID,EPOCH,MEAN_MOTION,ECCENTRICITY,INCLINATION,RA_OF_ASC_NODE,ARG_OF_PERICENTER,MEAN_ANOMALY,EPHEMERIS_TYPE,CLASSIFICATION_TYPE,NORAD_CAT_ID,ELEMENT_SET_NO,REV_AT_EPOCH,BSTAR,MEAN_MOTION_DOT,MEAN_MOTION_DDOT
GALAXY 34 (G-34),2022-128B,2026-06-24T13:44:36.682656,1.00277187,.00020668,0.0145,9.2904,88.7541,251.8415,0,U,54027,999,1398,0,.66E-6,0
ANGOSAT 2,2022-131A,2026-06-24T07:37:16.585248,1.00272115,.00006211,0.0306,105.9233,352.8704,310.9921,0,U,54033,999,1354,0,.143E-5,0
EUTELSAT HOTBIRD 13F,2022-134A,2026-06-25T04:06:21.947040,1.00271103,.00021219,0.0466,293.2237,71.2580,343.4414,0,U,54048,999,1345,0,.97E-6,0
LDPE-2,2022-144A,2026-06-25T08:05:14.989920,1.00536954,.00020219,5.6327,63.5890,92.5469,88.8744,0,U,54219,999,1192,0,.119E-5,0
EUTELSAT HOTBIRD 13G,2022-146A,2026-06-24T08:51:38.669184,1.00273684,.00021201,0.0504,222.3782,311.5150,244.5443,0,U,54225,999,753,0,.95E-6,0
ZHONGXING-19,2022-148A,2026-06-25T06:31:52.730112,1.00272599,.00027781,0.0284,77.2518,35.4890,61.8418,0,U,54230,999,1346,0,-.72E-6,0
GALAXY 31 (G-31),2022-153A,2026-06-25T02:59:38.795712,1.00272384,.00015112,0.0172,2.5644,93.8237,100.7977,0,U,54243,999,721,0,0,0
GALAXY 32 (G-32),2022-153B,2026-06-24T05:22:05.316096,1.00271380,.0002133,0.0097,2.1596,41.7877,217.9513,0,U,54244,999,1321,0,-.167E-5,0
EUTELSAT 10B,2022-157A,2026-06-24T09:16:08.824800,1.00268320,.00018029,0.0630,97.8964,7.0175,316.6249,0,U,54259,999,1309,0,.75E-6,0
GALAXY 35 (G-35),2022-170A,2026-06-25T03:36:09.352800,1.00271509,.00021208,0.0146,309.3921,142.0946,142.7336,0,U,54741,999,1297,0,-.153E-5,0
GALAXY 36 (G-36),2022-170B,2026-06-25T03:37:16.745664,1.00271784,.00028291,0.0343,132.5365,314.9706,151.1100,0,U,54742,999,1285,0,-.176E-5,0
METEOSAT-12 (MTG-I1),2022-170C,2026-06-25T05:38:38.624928,1.00275041,.00035926,0.7474,24.2867,71.3838,262.0180,0,U,54743,999,1305,0,.2E-7,0
SHIJIAN-23 (SJ-23),2023-002A,2026-06-24T18:40:36.651072,1.00086365,.0003749,3.7373,78.2242,278.5821,339.3351,0,U,55131,999,1258,0,-.281E-5,0
APSTAR-6E,2023-005A,2026-06-25T06:23:31.032960,1.00272592,.00005033,0.0229,257.9618,279.0565,326.2501,0,U,55239,999,1877,0,-.308E-5,0
USA 342,2023-008A,2026-06-19T16:53:16.090080,1.00267812,.0000125,0.0057,73.3519,107.0449,4.6843,0,U,55263,999,1254,0,0,0
LDPE-3A,2023-008B,2026-06-25T07:49:55.129728,0.99147846,.00014402,2.3692,81.5725,51.6395,115.7184,0,U,55264,999,1189,0,.71E-6,0
ELEKTRO-L 4,2023-016A,2026-06-24T18:45:07.648992,1.00271273,.00009485,0.0809,152.6579,28.1439,179.1927,0,U,55506,999,1240,0,-.49E-6,0
AMAZONAS NEXUS,2023-017A,2026-06-23T23:47:14.724096,1.00273041,.00050354,0.0361,39.7182,35.9228,132.3280,0,U,55508,999,711,0,-.276E-5,0
ZHONGXING-26,2023-023A,2026-06-25T08:03:39.612960,1.00267516,.00037319,0.0671,70.6866,19.3757,69.4216,0,U,55686,999,1231,0,-.344E-5,0
LUCH-5X (OLYMP-K 2),2023-031A,2026-06-24T18:04:24.606048,1.00270710,.0000949,0.0345,77.9779,147.7134,20.3023,0,U,55841,999,1201,0,.42E-6,0
GAOFEN-13 02,2023-036A,2026-06-25T06:27:38.136960,1.00269653,.00038129,1.0219,2.1756,339.4823,176.9113,0,U,55912,999,1217,0,-.21E-5,0
SES-18,2023-038A,2026-06-24T04:44:23.746848,1.00271139,.0000513,0.0410,275.0937,233.5125,91.7362,0,U,55970,999,1217,0,-.94E-6,0
SES-19,2023-038B,2026-06-25T06:49:33.754944,1.00271954,.00019294,0.0176,315.8434,139.2636,145.7893,0,U,55971,999,1217,0,.98E-6,0
INTELSAT 40E (IS-40E),2023-052A,2026-06-24T07:56:38.501952,1.00269586,.00024647,0.0200,27.5285,97.1687,175.9456,0,U,56174,999,1189,0,0,0
VIASAT-3 F1,2023-060A,2026-06-24T12:13:22.149696,1.00269346,.00011572,0.0223,357.1841,93.0700,276.7981,0,U,56370,999,1150,0,0,0
ARCTURUS,2023-060B,2026-06-23T00:52:21.631008,1.00548738,.00022996,2.7882,79.8710,243.3482,34.0386,0,U,56371,999,1151,0,-.127E-5,0
GS-1,2023-060C,2026-06-24T21:37:26.341248,1.00272474,.0003771,2.7448,79.7441,280.6706,326.4471,0,U,56372,999,761,0,-.217E-5,0
BEIDOU-3 G4,2023-066A,2026-06-25T06:25:15.864672,1.00271682,.00047288,0.4777,333.5966,175.7491,0.4370,0,U,56564,999,1147,0,-.271E-5,0
ARABSAT-7B (BADR-8),2023-075A,2026-06-23T00:29:47.832864,1.00271390,.00043737,0.0766,30.7707,357.7394,276.1261,0,U,56757,999,1117,0,.148E-5,0
NVS-01 (IRNSS-1J),2023-076A,2026-06-25T06:22:16.151808,1.00275599,.00028383,2.1468,243.9686,14.0924,240.4344,0,U,56759,999,1119,0,-.323E-5,0
NUSANTARA TIGA (SATRIA),2023-086A,2026-06-25T06:27:00.697248,1.00269248,.00028217,0.0359,357.5208,347.1824,171.4594,0,U,57045,999,984,0,-.225E-5,0
